IRIDIUM 7               
1 24793U 97020B   25364.74790716  .00000661  00000+0  22049-3 0  9996
2 24793  86.3957  94.5460 0002079 105.4243 254.7184 14.36123279500105
IRIDIUM 5               
1 24795U 97020D   25364.50881925  .00006792  00000+0  52918-3 0  9994
2 24795  86.3878 353.0371 0105224 151.1426 209.5682 14.96664114514807
IRIDIUM 4               
1 24796U 97020E   25364.74725610  .00000675  00000+0  22108-3 0  9991
2 24796  86.3953  91.2908 0002029  98.8433 261.2994 14.37029678500691
IRIDIUM 914             
1 24836U 97030A   25364.75462821  .00000764  00000+0  23136-3 0  9991
2 24836  86.3937  99.3115 0000715  61.7379 298.3893 14.41088841635437
IRIDIUM 16              
1 24841U 97030F   25364.80208534  .00000862  00000+0  27351-3 0  9994
2 24841  86.4051 122.7269 0003863 118.5840 241.5748 14.38909184495276
IRIDIUM 911             
1 24842U 97030G   25364.75277734  .00001183  00000+0  31340-3 0  9997
2 24842  86.4473 121.3003 0015069 154.9309 205.2629 14.47922483503521
IRIDIUM 17              
1 24870U 97034B   25364.49103219  .00000879  00000+0  28409-3 0  9992
2 24870  86.3983 152.2761 0003657  92.0117 268.1500 14.38043591491795
IRIDIUM 920             
1 24871U 97034C   25364.79325286  .00000882  00000+0  26399-3 0  9996
2 24871  86.3997 130.9308 0012709 145.1794 215.0240 14.41750512494900
